#dP2019  5 24  0  0  0.00000000      96 __u+U ITR00 FIT  IAC
## 2054 432000.00000000   900.00000000 58627 0.0000000000000
+   97   C01C02C03C04C05C06C07C08C10C11C12C13C14C16E01E02E03
+        E04E05E07E08E09E11E12E13E14E15E18E19E21E24E25E26E27
+        E30E31E33E36G01G02G03G04G05G06G07G08G09G10G11G12G13
+        G14G15G16G17G18G19G20G21G22G23G24G25G26G27G28G29G30
+        G31G32J01J02J03J07R01R02R03R04R05R07R08R09R10R11R13
+        R14R15R16R17R18R19R20R21R22R23R24R26  0  0  0  0  0
++        13 13 13 13 13  8  8  8  8  7  7  8  8  8  5  5  5
++         5  4  5  5  5  5  5  5  5  5  5  5  5  5  5  5  5
++         5  5  5  5  3  3  3  4  3  3  3  3  3  3  3  3  3
++         3  3  3  3  3  3  3  3  3  3  3  3  3  3  3  3  3
++         3  3  8  8  8 15  5  5  5  5  5  5  5  5  5  5  5
++         5  5  5  5  5  5  5  5  5  5  5  8  0  0  0  0  0
%c M  cc GPS ccc cccc cccc cccc cccc ccccc ccccc ccccc ccccc
%c cc cc ccc ccc cccc cccc cccc cccc ccccc ccccc ccccc ccccc
%f  0.0000000  0.000000000  0.00000000000  0.000000000000000
%f  0.0000000  0.000000000  0.00000000000  0.000000000000000
%i    0    0    0    0      0      0      0      0         0
%i    0    0    0    0      0      0      0      0         0
/* INFORMATION & ANALYSIS CENTER (IAC) OF MCC   (RAPID DATA)
/* S/V CLOCKS ARE ALIGNED TO GPS & GLONASS TIME RESPECTIVELY
/* USING THE BROADCAST EPHEMERIS                            
/* PCV:IGS14_2045 OL/AL:FES2004  NONE     YN ORB:CoN CLK:CoN
*  2019 05 24 12 45  0.00000000
PC01 -32305.741926  27084.877053   -639.025731    624.712660
PC02   4434.298745  41924.903322   1283.942998    140.018995
PC03 -14857.305849  39485.888546    348.135441    388.332670
PC04 -39605.062130  14462.715399   -103.927536   -215.769287
PC05  21820.885988  36100.409351    944.062094   -165.186230
PC06 -19501.164789  37439.666961   3913.097711    888.581655
PC07  -9480.482679  26434.327999 -31199.736340    -33.855617
PC08 -22254.303755  20721.741769  29169.132444    160.292980
PC10   5618.498020  34402.609654 -23318.410923   -780.705403
PC11   6567.081640 -21139.624636 -16975.176962    314.382648
PC12  22858.070272 -13754.459681   8381.914338    697.364291
PC13  -4584.260364  23754.031085  34555.863476   -732.810316
PC14   4639.603211 -23470.133595 -14260.516430    598.851004
PC16 -16324.116973  38974.753430   -119.755257   -816.313405
PE01  -3258.669100  17524.550207 -23634.288406   -611.417697
PE02   3202.220888 -17552.249724  23612.896178     61.674663
PE03   8602.532961 -27818.746118  -5350.693023   -169.615557
PE04   4689.410258  26309.209030 -12716.028533   -288.396905
PE05  16974.652114 -13018.796270 -20449.565233   -481.195455
PE07 -15383.445401  -9323.669362  23523.046879   -193.762473
PE08  -4910.331343 -26209.228860  12874.743252   6351.042617
PE09  15319.638680   9124.439666 -23611.144164   6429.993528
PE11  24154.448690   2755.001620  16864.528948   5689.834434
PE12   6224.345820  15164.159412  24648.758489   6380.755657
PE13 -24080.001176  -2684.901036 -17006.424001    387.508628
PE14  12445.609905   7999.949368  18016.246785   -578.850942
PE15  -6682.396887 -14890.697473 -24687.522360    909.322028
PE18 -18331.317441  -9828.682810 -25162.951210   -676.117460
PE19  -9676.151013  27031.423834   7219.463782     -6.222921
PE21 -20011.664282   2089.705175 -21718.739638   -535.552914
PE24  24820.395566  14406.804934   7265.292547   6064.835171
PE25  20039.111047  -2041.029143  21688.277077   1794.692801
PE26 -27506.333910  10919.282140    679.926714   4533.283503
PE27 -24850.216611 -14496.951640  -6968.274622    463.463003
PE30 -15180.261157 -22617.090657  11566.338699   4846.394937
PE31  15098.147209  22537.002044 -11833.755193   -465.022506
PE33 -14689.217506  18416.218798  17936.214790   -470.119678
PE36  27417.070618 -11123.452146   -655.848966    708.314091
PG01 -11683.799749 -13454.474736 -19983.355173    -23.873532
PG02 -12168.423406  14509.520012  19170.348657   -220.780880
PG03 -12489.185721 -23436.813358  -1712.267977    187.418940
PG04 -17049.260649    630.339184  20370.603808    162.911725
PG05  -2630.394906  19507.212063  17616.410250      0.814358
PG06 -23628.716029   7068.408131   9945.728052    197.071772
PG07 -23418.372182  -7674.857784  10770.276614    -30.540093
PG08   3069.420986 -23228.410633 -12277.370820   -144.754765
PG09 -14089.658564  -6249.932594  21591.133108    405.326128
PG10  17118.965842   1166.489179 -20261.454414     37.203323
PG11  -6447.378610 -15278.858617 -21286.601425   -599.958368
PG12   9948.974952  24536.942472  -3280.288606    239.584945
PG13 -11988.159848  22981.829952  -5789.751468    -62.255792
PG14  18390.453436 -16950.724193  -8336.312872    -79.134870
PG15    496.648619  23052.568831 -13097.764423   -311.191148
PG16   3567.747053 -19353.126326  17430.996093    -42.540055
PG17 -18650.477836  10137.642438 -15504.169966     59.986344
PG18  -1450.470119 -15524.144372 -21997.291589     55.977114
PG19 -19174.961609  15664.621322 -10017.638231   -315.154279
PG20  20551.862498   9291.591570 -14247.147264    524.935171
PG21  25490.548673   3339.780187   7132.282570   -186.633975
PG22  -8458.888188 -23588.214525  -8689.387819   -706.078995
PG23  -6170.740941 -17675.212990  19021.309029   -184.849861
PG24   8393.087832  14661.178192 -20716.060378    -66.493326
PG25  17342.096035  18503.798317   8106.258017   -759.347432
PG26  10897.335813 -11307.857027  21380.983531    209.436756
PG27  11780.578234 -23558.172708  -1804.160018   -139.822134
PG28 -16353.353493  -3167.349546 -20059.987197    767.792586
PG29  10107.808792  11064.593710  21894.042210    193.822402
PG30 -26652.258242   -830.958326      1.524004   -110.588489
PG31  23188.304908  -7400.818494  11141.195664     35.969935
PG32  18456.944740 -12210.875611 -14537.225652    -73.715236
PJ01 -25635.591186  25174.995301  27134.111709   -299.860609
PJ02 -25557.225605  16283.532521 -24872.126302      0.017229
PJ03 -25874.773673  32488.202806  -2965.763142      0.311400
PJ07 -25422.626490  33643.012405     33.887027      0.008815
PR01 -10852.944099  -9160.659540  21201.189855     44.265446
PR02  -8918.380369  13170.545248  20003.884522    370.109826
PR03  -1786.497919  24728.184040   6141.260010     -4.369913
PR04   6644.920689  21630.563539 -11767.031471    307.461580
PR05  10734.707661   6752.661432 -22118.751983     28.712571
PR07   1499.255461 -24833.749773  -5505.542716    -20.573797
PR08  -6369.426957 -22024.179387  11233.131734     17.592729
PR09  14115.001152  -4079.895771  20843.949632     71.379820
PR10   -760.060564 -12164.374647  22397.388561     50.523887
PR11 -17379.623976 -15058.896328  11102.136202    -67.151039
PR13 -15526.026352   2770.739290 -20070.363490    -24.033145
PR14    796.239587  12385.888149 -22274.005584     39.256494
PR15  16783.664478  15079.580201 -11881.796848    102.132129
PR16  23408.054913   8691.581739   5473.680523      9.229673
PR17 -12248.711616  16153.664178  15468.316148    230.229625
PR18   3627.314716  10110.156698  23150.533233     -5.735519
PR19  17661.345055  -1024.726762  18372.186699    -32.352553
PR20  22118.460887 -12580.160991   1341.017681   -379.088644
PR21  11790.631019 -16040.647024 -15962.231394    -49.880866
PR22  -6314.596360  -8394.625592 -23245.237531    -20.682898
PR23 -20338.174838   5010.299951 -14572.736508    229.970895
PR24 -21517.478447  13712.603843    430.753900   -180.789643
PR26  22248.554622 -11813.071065   4093.151116    -10.660927
EOF
